# MUOS 1-5: source https://www.n2yo.com/database/?q=muos#results; states from 11/24/2024 
MUOS_CLUSTER = [
    ["MUOS1","1 38093U 12009A   24328.84934740 -.00000118  00000-0  00000+0 0  9993","2 38093   4.3406  45.8931 0049934 358.5963 224.6576  1.00270913 46735"],
    ["MUOS2","1 39206U 13036A   24329.55700675  .00000077  00000-0  00000-0 0  9992","2 39206   3.9040  42.4911 0056935 181.1802 223.8607  1.00269094 41484"],
    ["MUOS3","1 40374U 15002A   24329.43786832 -.00000116  00000-0  00000-0 0  9996","2 40374   3.4910  38.1021 0059503 181.3242 346.6651  1.00271182 35871"],
    ["MUOS4","1 40887U 15044A   24329.54355015 -.00000081  00000-0  00000-0 0  9999","2 40887   3.3387  35.5321 0051870 355.7182 303.4456  1.00272070 33846"],
    ["MUOS5","1 41622U 16041A   24329.52340800 -.00000141  00000-0  00000-0 0  9996","2 41622   3.5018 296.8384 0198903 257.3651 313.1874  1.00272344 31377"],
]

# AEHF 1-6: source https://www.n2yo.com/database/?q=aehf#results; states from 11/25/2024
AEHF_CLUSTER = [
    ["AEHF 1 (USA 214)","1 36868U 10039A   24329.87577366  .00000164  00000-0  00000-0 0  9994","2 36868   6.7931  75.2803 0003764 164.3693 169.9020  1.00270305 47945"],
    ["AEHF 2 (USA 235)","1 38254U 12019A   24330.09424553 -.00000120  00000-0  00000+0 0  9992","2 38254   5.3309  60.9968 0002719 174.2226 206.7584  1.00270172 45972"],
    ["AEHF-3 (USA 246)","1 39256U 13050A   24330.41924497  .00000047  00000-0  00000+0 0  9996","2 39256   3.8772  71.8519 0093490 174.5921 205.0640  1.00270607 40980"],
    ["AEHF 4 (USA 288)","1 43651U 18079A   24329.85631243 -.00000264  00000-0  00000-0 0  9999","2 43651   1.6414 333.9114 0051122   6.1363 325.0329  1.00276301 22582"],
    ["AEHF 5 (USA 292)","1 44481U 19051A   24330.39980128 -.00000220  00000-0  00000+0 0  9993","2 44481   2.3816 310.2561 0056878   9.7723 338.7965  1.00270920 19555"],
    ["AEHF 6 (USA 298)","1 45465U 20022B   24329.82564360 -.00000288  00000-0  00000+0 0  9992","2 45465   3.8464 298.2394 0047726   2.9712 198.0144  1.00276285 17270"],
]